TOMORROW-S4             
1 62386U 24247K   26068.53305366  .00012677  00000+0  46927-3 0  9990
2 62386  44.9818 117.9996 0004434 210.4078 149.6548 15.27717249 67702
STARLINK-35868          
1 66579U 25268Y   26068.18552235  .00027892  00000+0  10189-2 0  9997
2 66579  43.0033 349.8208 0003031 249.1192 110.9336 15.27589789 17885
