[{"OBJECT_NAME":"TOMORROW-S4","OBJECT_ID":"2024-247K","EPOCH":"2026-03-09T12:47:35.836224","MEAN_MOTION":15.27717249,"ECCENTRICITY":0.00044343,"INCLINATION":44.9818,"RA_OF_ASC_NODE":117.9996,"ARG_OF_PERICENTER":210.4078,"MEAN_ANOMALY":149.6548,"EPHEMERIS_TYPE":0,"CLASSIFICATION_TYPE":"U","NORAD_CAT_ID":62386,"ELEMENT_SET_NO":999,"REV_AT_EPOCH":6770,"BSTAR":0.00046927249,"MEAN_MOTION_DOT":0.00012677,"MEAN_MOTION_DDOT":0},{"OBJECT_NAME":"STARLINK-35868","OBJECT_ID":"2025-268Y","EPOCH":"2026-03-09T04:27:09.131040","MEAN_MOTION":15.27589789,"ECCENTRICITY":0.00030314,"INCLINATION":43.0033,"RA_OF_ASC_NODE":349.8208,"ARG_OF_PERICENTER":249.1192,"MEAN_ANOMALY":110.9336,"EPHEMERIS_TYPE":0,"CLASSIFICATION_TYPE":"U","NORAD_CAT_ID":66579,"ELEMENT_SET_NO":999,"REV_AT_EPOCH":1788,"BSTAR":0.0010188969,"MEAN_MOTION_DOT":0.00027892,"MEAN_MOTION_DDOT":0}]
